{
    "links": {
        "self": "http://www.neowsapp.com/rest/v1/neo/3703245?api_key=iIulBulltgU6a56xZRHN4H3l9WmuAYTsLGpBGhQ2"
    },
    "id": "3703245",
    "neo_reference_id": "3703245",
    "name": "(2014 YB42)",
    "designation": "2014 YB42",
    "nasa_jpl_url": "http://ssd.jpl.nasa.gov/sbdb.cgi?sstr=3703245",
    "absolute_magnitude_h": 25.4,
    "estimated_diameter": {
        "kilometers": {
            "estimated_diameter_min": 0.022108281,
            "estimated_diameter_max": 0.0494356193
        },
        "meters": {
            "estimated_diameter_min": 22.1082810359,
            "estimated_diameter_max": 49.435619262
        },
        "miles": {
            "estimated_diameter_min": 0.0137374447,
            "estimated_diameter_max": 0.0307178602
        },
        "feet": {
            "estimated_diameter_min": 72.5337327539,
            "estimated_diameter_max": 162.1903570994
        }
    },
    "is_potentially_hazardous_asteroid": false,
    "close_approach_data": [
        {
            "close_approach_date": "2015-01-04",
            "close_approach_date_full": "2015-Jan-04 05:33",
            "epoch_date_close_approach": 1420349580000,
            "relative_velocity": {
                "kilometers_per_second": "9.660030177",
                "kilometers_per_hour": "34776.1086373468",
                "miles_per_hour": "21608.5215030225"
            },
            "miss_distance": {
                "astronomical": "0.0425749841",
                "lunar": "16.5616688149",
                "kilometers": "6369126.936643867",
                "miles": "3957591.9624526846"
            },
            "orbiting_body": "Earth"
        }
    ],
    "orbital_data": {
        "orbit_id": "5",
        "orbit_determination_date": "2017-04-06 08:36:35",
        "first_observation_date": "2014-12-29",
        "last_observation_date": "2015-01-05",
        "data_arc_in_days": 7,
        "observations_used": 32,
        "orbit_uncertainty": "8",
        "minimum_orbit_intersection": ".024433",
        "jupiter_tisserand_invariant": "3.428",
        "epoch_osculation": "2457022.5",
        "eccentricity": ".5599109200408912",
        "semi_major_axis": "2.212652554498205",
        "inclination": "5.230728963383175",
        "ascending_node_longitude": "97.89759628892668",
        "orbital_period": "1202.176577162551",
        "perihelion_distance": ".973764226978287",
        "perihelion_argument": "33.72554621366549",
        "aphelion_distance": "3.451540882018123",
        "perihelion_time": "2457048.048722341449",
        "mean_anomaly": "352.3492603186212",
        "mean_motion": ".2994568408991079",
        "equinox": "J2000",
        "orbit_class": {
            "orbit_class_type": "APO",
            "orbit_class_description": "Near-Earth asteroid orbits which cross the Earth’s orbit similar to that of 1862 Apollo",
            "orbit_class_range": "a (semi-major axis) > 1.0 AU; q (perihelion) < 1.017 AU"
        }
    },
    "is_sentry_object": false
}